{"type": "FeatureCollection", "features": [{"type": "Feature", "properties": {"norad_id": 28890, "name": "BEIJING 1", "group": "dmc", "lat": 45.01963509100904, "lon": -65.69615763577895, "alt_km": 669.6087874266041, "timestamp": "2025-12-04T10:51:49.772696+00:00", "meta": {"OBJECT_NAME": "BEIJING 1", "OBJECT_ID": "2005-043A", "EPOCH": "2025-12-03T22:45:52.689600", "MEAN_MOTION": 14.63353287, "ECCENTRICITY": 0.00148723, "INCLINATION": 98.265, "RA_OF_ASC_NODE": 105.435, "ARG_OF_PERICENTER": 168.0524, "MEAN_ANOMALY": 192.1034, "EPHEMERIS_TYPE": 0, "CLASSIFICATION_TYPE": "U", "NORAD_CAT_ID": 28890, "ELEMENT_SET_NO": 999, "REV_AT_EPOCH": 7209, "BSTAR": 0.00017075602, "MEAN_MOTION_DOT": 8.34e-06, "MEAN_MOTION_DDOT": 0}, "tle": {"line1": "1 28890U 05043A   25337.94852650  .00000834  00000+0  17076-3 0  9996", "line2": "2 28890  98.2650 105.4350 0014872 168.0524 192.1034 14.63353287 72095"}}, "geometry": {"type": "Point", "coordinates": [-65.69615763577895, 45.01963509100904]}}, {"type": "Feature", "properties": {"norad_id": 33320, "name": "HUANJING 1A (HJ-1A)", "group": "dmc", "lat": -72.5368074155643, "lon": -7.598325847530278, "alt_km": 636.1341781181682, "timestamp": "2025-12-04T10:51:49.772720+00:00", "meta": {"OBJECT_NAME": "HUANJING 1A (HJ-1A)", "OBJECT_ID": "2008-041A", "EPOCH": "2025-12-03T23:51:56.367360", "MEAN_MOTION": 14.83350196, "ECCENTRICITY": 0.00206181, "INCLINATION": 97.6531, "RA_OF_ASC_NODE": 326.6588, "ARG_OF_PERICENTER": 61.5697, "MEAN_ANOMALY": 298.7592, "EPHEMERIS_TYPE": 0, "CLASSIFICATION_TYPE": "U", "NORAD_CAT_ID": 33320, "ELEMENT_SET_NO": 999, "REV_AT_EPOCH": 92946, "BSTAR": 0.00037646111, "MEAN_MOTION_DOT": 3.046e-05, "MEAN_MOTION_DDOT": 0}, "tle": {"line1": "1 33320U 08041A   25337.99440240  .00003046  00000+0  37646-3 0  9997", "line2": "2 33320  97.6531 326.6588 0020618  61.5697 298.7592 14.83350196929465"}}, "geometry": {"type": "Point", "coordinates": [-7.598325847530278, -72.5368074155643]}}, {"type": "Feature", "properties": {"norad_id": 33321, "name": "HUANJING 1B (HJ-1B)", "group": "dmc", "lat": 15.324254266701109, "lon": 152.924203749514, "alt_km": 608.972254695007, "timestamp": "2025-12-04T10:51:49.772734+00:00", "meta": {"OBJECT_NAME": "HUANJING 1B (HJ-1B)", "OBJECT_ID": "2008-041B", "EPOCH": "2025-12-03T22:47:28.831200", "MEAN_MOTION": 14.8278519, "ECCENTRICITY": 0.0038159, "INCLINATION": 97.6396, "RA_OF_ASC_NODE": 330.3357, "ARG_OF_PERICENTER": 103.5461, "MEAN_ANOMALY": 257.0009, "EPHEMERIS_TYPE": 0, "CLASSIFICATION_TYPE": "U", "NORAD_CAT_ID": 33321, "ELEMENT_SET_NO": 999, "REV_AT_EPOCH": 92947, "BSTAR": 0.00025431796, "MEAN_MOTION_DOT": 2.031e-05, "MEAN_MOTION_DDOT": 0}, "tle": {"line1": "1 33321U 08041B   25337.94963925  .00002031  00000+0  25432-3 0  9996", "line2": "2 33321  97.6396 330.3357 0038159 103.5461 257.0009 14.82785190929473"}}, "geometry": {"type": "Point", "coordinates": [152.924203749514, 15.324254266701109]}}, {"type": "Feature", "properties": {"norad_id": 33446, "name": "YAOGAN-4", "group": "dmc", "lat": 77.14341108590311, "lon": -128.93491284682102, "alt_km": 613.5155065501785, "timestamp": "2025-12-04T10:51:49.772746+00:00", "meta": {"OBJECT_NAME": "YAOGAN-4", "OBJECT_ID": "2008-061A", "EPOCH": "2025-12-03T19:55:41.461536", "MEAN_MOTION": 14.82635985, "ECCENTRICITY": 0.00143425, "INCLINATION": 97.9169, "RA_OF_ASC_NODE": 268.0176, "ARG_OF_PERICENTER": 353.1456, "MEAN_ANOMALY": 6.9559, "EPHEMERIS_TYPE": 0, "CLASSIFICATION_TYPE": "U", "NORAD_CAT_ID": 33446, "ELEMENT_SET_NO": 999, "REV_AT_EPOCH": 91671, "BSTAR": 0.00033242985, "MEAN_MOTION_DOT": 2.629e-05, "MEAN_MOTION_DDOT": 0}, "tle": {"line1": "1 33446U 08061A   25337.83034099  .00002629  00000+0  33243-3 0  9997", "line2": "2 33446  97.9169 268.0176 0014342 353.1456   6.9559 14.82635985916713"}}, "geometry": {"type": "Point", "coordinates": [-128.93491284682102, 77.14341108590311]}}, {"type": "Feature", "properties": {"norad_id": 35681, "name": "DEIMOS-1", "group": "dmc", "lat": 77.07927748201298, "lon": 103.22228131321748, "alt_km": 636.2935383129043, "timestamp": "2025-12-04T10:51:49.772757+00:00", "meta": {"OBJECT_NAME": "DEIMOS-1", "OBJECT_ID": "2009-041A", "EPOCH": "2025-12-04T03:59:29.781888", "MEAN_MOTION": 14.74932413, "ECCENTRICITY": 0.0002689, "INCLINATION": 97.7146, "RA_OF_ASC_NODE": 139.1692, "ARG_OF_PERICENTER": 95.6686, "MEAN_ANOMALY": 264.4831, "EPHEMERIS_TYPE": 0, "CLASSIFICATION_TYPE": "U", "NORAD_CAT_ID": 35681, "ELEMENT_SET_NO": 999, "REV_AT_EPOCH": 87813, "BSTAR": 0.0002085, "MEAN_MOTION_DOT": 1.353e-05, "MEAN_MOTION_DDOT": 0}, "tle": {"line1": "1 35681U 09041A   25338.16631692  .00001353  00000+0  20850-3 0  9991", "line2": "2 35681  97.7146 139.1692 0002689  95.6686 264.4831 14.74932413878138"}}, "geometry": {"type": "Point", "coordinates": [103.22228131321748, 77.07927748201298]}}, {"type": "Feature", "properties": {"norad_id": 35683, "name": "UK-DMC 2", "group": "dmc", "lat": 72.89748261631854, "lon": 86.9282159646695, "alt_km": 635.4556585777773, "timestamp": "2025-12-04T10:51:49.772768+00:00", "meta": {"OBJECT_NAME": "UK-DMC 2", "OBJECT_ID": "2009-041C", "EPOCH": "2025-12-04T04:00:59.352768", "MEAN_MOTION": 14.75592724, "ECCENTRICITY": 0.0001303, "INCLINATION": 97.8557, "RA_OF_ASC_NODE": 113.3127, "ARG_OF_PERICENTER": 102.5426, "MEAN_ANOMALY": 257.5929, "EPHEMERIS_TYPE": 0, "CLASSIFICATION_TYPE": "U", "NORAD_CAT_ID": 35683, "ELEMENT_SET_NO": 999, "REV_AT_EPOCH": 87780, "BSTAR": 0.00029863, "MEAN_MOTION_DOT": 1.988e-05, "MEAN_MOTION_DDOT": 0}, "tle": {"line1": "1 35683U 09041C   25338.16735362  .00001988  00000+0  29863-3 0  9999", "line2": "2 35683  97.8557 113.3127 0001303 102.5426 257.5929 14.75592724877808"}}, "geometry": {"type": "Point", "coordinates": [86.9282159646695, 72.89748261631854]}}, {"type": "Feature", "properties": {"norad_id": 40715, "name": "DMC3-FM1", "group": "dmc", "lat": -11.29862975966206, "lon": 24.403738348437027, "alt_km": 620.1169324061575, "timestamp": "2025-12-04T10:51:49.772778+00:00", "meta": {"OBJECT_NAME": "DMC3-FM1", "OBJECT_ID": "2015-032A", "EPOCH": "2025-12-03T22:41:17.914272", "MEAN_MOTION": 14.85416316, "ECCENTRICITY": 0.00052834, "INCLINATION": 97.6699, "RA_OF_ASC_NODE": 205.4579, "ARG_OF_PERICENTER": 352.5311, "MEAN_ANOMALY": 7.5825, "EPHEMERIS_TYPE": 0, "CLASSIFICATION_TYPE": "U", "NORAD_CAT_ID": 40715, "ELEMENT_SET_NO": 999, "REV_AT_EPOCH": 56092, "BSTAR": 0.00018081573, "MEAN_MOTION_DOT": 1.506e-05, "MEAN_MOTION_DDOT": 0}, "tle": {"line1": "1 40715U 15032A   25337.94534623  .00001506  00000+0  18082-3 0  9997", "line2": "2 40715  97.6699 205.4579 0005283 352.5311   7.5825 14.85416316560923"}}, "geometry": {"type": "Point", "coordinates": [24.403738348437027, -11.29862975966206]}}, {"type": "Feature", "properties": {"norad_id": 40716, "name": "DMC3-FM2", "group": "dmc", "lat": 69.6191732140294, "lon": -173.90042513906965, "alt_km": 604.5261802785562, "timestamp": "2025-12-04T10:51:49.772789+00:00", "meta": {"OBJECT_NAME": "DMC3-FM2", "OBJECT_ID": "2015-032B", "EPOCH": "2025-12-03T23:13:42.403296", "MEAN_MOTION": 14.85418265, "ECCENTRICITY": 0.00059322, "INCLINATION": 97.6756, "RA_OF_ASC_NODE": 206.9172, "ARG_OF_PERICENTER": 356.626, "MEAN_ANOMALY": 3.4914, "EPHEMERIS_TYPE": 0, "CLASSIFICATION_TYPE": "U", "NORAD_CAT_ID": 40716, "ELEMENT_SET_NO": 999, "REV_AT_EPOCH": 56092, "BSTAR": 0.00019015473, "MEAN_MOTION_DOT": 1.587e-05, "MEAN_MOTION_DDOT": 0}, "tle": {"line1": "1 40716U 15032B   25337.96785189  .00001587  00000+0  19015-3 0  9991", "line2": "2 40716  97.6756 206.9172 0005932 356.6260   3.4914 14.85418265560921"}}, "geometry": {"type": "Point", "coordinates": [-173.90042513906965, 69.6191732140294]}}, {"type": "Feature", "properties": {"norad_id": 40717, "name": "DMC3-FM3", "group": "dmc", "lat": -43.884430621593786, "lon": -143.52961826189042, "alt_km": 616.237264639858, "timestamp": "2025-12-04T10:51:49.772800+00:00", "meta": {"OBJECT_NAME": "DMC3-FM3", "OBJECT_ID": "2015-032C", "EPOCH": "2025-12-03T22:07:45.908832", "MEAN_MOTION": 14.85409847, "ECCENTRICITY": 0.00052962, "INCLINATION": 97.6811, "RA_OF_ASC_NODE": 208.5002, "ARG_OF_PERICENTER": 359.0348, "MEAN_ANOMALY": 1.0856, "EPHEMERIS_TYPE": 0, "CLASSIFICATION_TYPE": "U", "NORAD_CAT_ID": 40717, "ELEMENT_SET_NO": 999, "REV_AT_EPOCH": 56092, "BSTAR": 0.00012992169, "MEAN_MOTION_DOT": 1.068e-05, "MEAN_MOTION_DDOT": 0}, "tle": {"line1": "1 40717U 15032C   25337.92205913  .00001068  00000+0  12992-3 0  9991", "line2": "2 40717  97.6811 208.5002 0005296 359.0348   1.0856 14.85409847560926"}}, "geometry": {"type": "Point", "coordinates": [-143.52961826189042, -43.884430621593786]}}]}